{
    "links": {
        "self": "http://www.neowsapp.com/rest/v1/neo/3735681?api_key=iIulBulltgU6a56xZRHN4H3l9WmuAYTsLGpBGhQ2"
    },
    "id": "3735681",
    "neo_reference_id": "3735681",
    "name": "(2015 XW1)",
    "designation": "2015 XW1",
    "nasa_jpl_url": "http://ssd.jpl.nasa.gov/sbdb.cgi?sstr=3735681",
    "absolute_magnitude_h": 22.7,
    "estimated_diameter": {
        "kilometers": {
            "estimated_diameter_min": 0.0766575574,
            "estimated_diameter_max": 0.1714115092
        },
        "meters": {
            "estimated_diameter_min": 76.6575573531,
            "estimated_diameter_max": 171.4115092306
        },
        "miles": {
            "estimated_diameter_min": 0.0476327831,
            "estimated_diameter_max": 0.1065101409
        },
        "feet": {
            "estimated_diameter_min": 251.5011804664,
            "estimated_diameter_max": 562.3737359442
        }
    },
    "is_potentially_hazardous_asteroid": false,
    "close_approach_data": [
        {
            "close_approach_date": "2015-11-26",
            "close_approach_date_full": "2015-Nov-26 07:02",
            "epoch_date_close_approach": 1448521320000,
            "relative_velocity": {
                "kilometers_per_second": "23.132264149",
                "kilometers_per_hour": "83276.1509365487",
                "miles_per_hour": "51744.5616749905"
            },
            "miss_distance": {
                "astronomical": "0.1062921091",
                "lunar": "41.3476304399",
                "kilometers": "15901073.119167617",
                "miles": "9880468.6728304346"
            },
            "orbiting_body": "Earth"
        }
    ],
    "orbital_data": {
        "orbit_id": "6",
        "orbit_determination_date": "2017-04-06 08:30:14",
        "first_observation_date": "2015-12-03",
        "last_observation_date": "2015-12-07",
        "data_arc_in_days": 4,
        "observations_used": 36,
        "orbit_uncertainty": "9",
        "minimum_orbit_intersection": ".0721768",
        "jupiter_tisserand_invariant": "4.218",
        "epoch_osculation": "2457360.5",
        "eccentricity": ".3924070132159299",
        "semi_major_axis": "1.515496087022496",
        "inclination": "37.81918477176769",
        "ascending_node_longitude": "63.00772636101906",
        "orbital_period": "681.4447593144375",
        "perihelion_distance": ".9208047939735697",
        "perihelion_argument": "300.909225975468",
        "aphelion_distance": "2.110187380071423",
        "perihelion_time": "2457307.724869850573",
        "mean_anomaly": "27.88053850895789",
        "mean_motion": ".528289336852741",
        "equinox": "J2000",
        "orbit_class": {
            "orbit_class_type": "APO",
            "orbit_class_description": "Near-Earth asteroid orbits which cross the Earth’s orbit similar to that of 1862 Apollo",
            "orbit_class_range": "a (semi-major axis) > 1.0 AU; q (perihelion) < 1.017 AU"
        }
    },
    "is_sentry_object": false
}